NOAA 15                 
1 25338U 98030A   24094.53934115  .00000249  00000+0  12115-3 0  9998
2 25338  98.5770 123.2012 0010501 176.5868 183.5386 14.26526999346547
NOAA 18                 
1 28654U 05018A   24094.51297594  .00000253  00000+0  15912-3 0  9990
2 28654  98.8769 172.0940 0013154 274.4607  85.5062 14.13159364972620
NOAA 19                 
1 33591U 09005A   24094.59564858  .00000242  00000+0  15406-3 0  9990
2 33591  99.0556 149.5823 0014625 140.0788 220.1462 14.12960677780831
METOP-B                 
1 38771U 12049A   24094.56316918  .00000163  00000+0  94360-4 0  9995
2 38771  98.6354 153.4335 0000753 129.5115 230.6129 14.21497006598959
SARAL                   
1 39086U 13009A   24094.61723336  .00000194  00000+0  88029-4 0  9993
2 39086  98.5514 280.7645 0002751 125.9938 234.1501 14.32375009580401
METOP-C                 
1 43689U 18087A   24094.59956081  .00000156  00000+0  91364-4 0  9994
2 43689  98.6873 154.7669 0001293 306.2905  53.8153 14.21508668280524
ANGELS                  
1 44876U 19092D   24094.47760609  .00006496  00000+0  25828-3 0  9990
2 44876  97.4776 283.0028 0009465 217.4927 142.5651 15.25599211237961
GAZELLE                 
1 54023U 22127A   24094.53173495  .00000261  00000+0  92300-4 0  9990
2 54023  98.3423  90.4943 0014656  96.2995 263.9865 14.42036347 78363
EOS-6 (OCEANSAT-3)      
1 54361U 22158A   24094.54397019  .00000503  00000+0  15040-3 0  9994
2 54361  98.3477 192.5952 0001514  93.5041 266.6325 14.46976301 71475
